NORAD_CAT_ID,OBJECT_NAME,OBJECT_TYPE,EPOCH,MEAN_MOTION,ECCENTRICITY,INCLINATION,RA_OF_ASC_NODE,ARG_OF_PERICENTER,MEAN_ANOMALY,BSTAR,MEAN_MOTION_DOT,MEAN_MOTION_DDOT,TLE_LINE0,TLE_LINE1,TLE_LINE2,SEMIMAJOR_AXIS,PERIOD,APOGEE,PERIGEE,DECAYED
52290.0,STARLINK-3772,PAYLOAD,2023-02-20 17:29:25,15.08844375,0.0001266,53.2162,55.4624,80.7524,279.3611,1.0316e-05,-1.24e-06,0.0,0 STARLINK-3772,1 52290U 22041AF  23051.72877305 -.00000124  00000-0  10316-4 0  9990,2 52290  53.2162  55.4624 0001266  80.7524 279.3611 15.08844375 47696,6917.867,95.437,540.608,538.856,0.0
52290.0,STARLINK-3772,PAYLOAD,2023-02-21 09:23:17,15.08841847,0.0001423,53.2159,52.4892,81.0253,279.09,4.2454e-05,3.88e-06,0.0,0 STARLINK-3772,1 52290U 22041AF  23052.39117653  .00000388  00000-0  42454-4 0  9996,2 52290  53.2159  52.4892 0001423  81.0253 279.0900 15.08841847 46580,6917.875,95.437,540.724,538.755,0.0
52290.0,STARLINK-3772,PAYLOAD,2023-02-21 17:20:13,15.08845219,0.0001373,53.2164,51.0024,81.8389,278.2759,0.00010441,1.374e-05,0.0,0 STARLINK-3772,1 52290U 22041AF  23052.72237469  .00001374  00000-0  10441-3 0  9997,2 52290  53.2164  51.0024 0001373  81.8389 278.2759 15.08845219 46636,6917.864,95.437,540.679,538.78,0.0
52290.0,STARLINK-3772,PAYLOAD,2023-02-22 02:52:31,15.08846753,0.000135,53.2164,49.2176,91.3006,268.8141,0.00023298,3.423e-05,0.0,0 STARLINK-3772,1 52290U 22041AF  23053.11981410  .00003423  00000-0  23298-3 0  9994,2 52290  53.2164  49.2176 0001350  91.3006 268.8141 15.08846753 47905,6917.86,95.437,540.659,538.791,0.0
52290.0,STARLINK-3772,PAYLOAD,2023-02-22 09:14:04,15.08851618,0.0001317,53.2165,48.0273,97.1328,262.9814,0.00032708,4.923e-05,0.0,0 STARLINK-3772,1 52290U 22041AF  23053.38477175  .00004923  00000-0  32708-3 0  9993,2 52290  53.2165  48.0273 0001317  97.1328 262.9814 15.08851618 46733,6917.845,95.437,540.621,538.799,0.0
52290.0,STARLINK-3772,PAYLOAD,2023-02-22 17:11:00,15.08839946,0.0001231,53.2175,46.5402,100.8267,259.2864,0.00010863,1.441e-05,0.0,0 STARLINK-3772,1 52290U 22041AF  23053.71597564  .00001441  00000-0  10863-3 0  9995,2 52290  53.2175  46.5402 0001231 100.8267 259.2864 15.08839946 47993,6917.881,95.438,540.597,538.894,0.0
52290.0,STARLINK-3772,PAYLOAD,2023-02-23 10:40:14,15.08848968,0.0001367,53.2174,43.2703,101.0913,259.0233,0.00031517,4.733e-05,0.0,0 STARLINK-3772,1 52290U 22041AF  23054.44461484  .00004733  00000-0  31517-3 0  9993,2 52290  53.2174  43.2703 0001367 101.0913 259.0233 15.08848968 46891,6917.853,95.437,540.664,538.772,0.0
52290.0,STARLINK-3772,PAYLOAD,2023-02-23 23:23:20,15.08840656,0.0001444,53.2176,40.891,103.2013,256.914,0.00011745,1.582e-05,0.0,0 STARLINK-3772,1 52290U 22041AF  23054.97453785  .00001582  00000-0  11745-3 0  9996,2 52290  53.2176  40.8910 0001444 103.2013 256.9140 15.08840656 48180,6917.878,95.438,540.742,538.744,0.0
52290.0,STARLINK-3772,PAYLOAD,2023-02-24 08:55:38,15.08859208,0.0001217,53.2178,39.1075,96.2303,263.8828,0.00081143,0.00012656,0.0,0 STARLINK-3772,1 52290U 22041AF  23055.37197384  .00012656  00000-0  81143-3 0  9994,2 52290  53.2178  39.1075 0001217  96.2303 263.8828 15.08859208 48246,6917.822,95.436,540.529,538.845,0.0
52290.0,STARLINK-3772,PAYLOAD,2023-02-24 23:14:07,15.08843478,0.000161,53.2179,36.4313,96.1506,263.967,0.00052461,8.072e-05,0.0,0 STARLINK-3772,1 52290U 22041AF  23055.96813901  .00008072  00000-0  52461-3 0  9997,2 52290  53.2179  36.4313 0001610  96.1506 263.9670 15.08843478 48331,6917.87,95.437,540.849,538.621,0.0
52290.0,STARLINK-3772,PAYLOAD,2023-02-25 08:46:26,15.08841504,0.0001137,53.218,34.6469,80.8909,279.2212,0.0004592,7.028e-05,0.0,0 STARLINK-3772,1 52290U 22041AF  23056.36558078  .00007028  00000-0  45920-3 0  9995,2 52290  53.2180  34.6469 0001137  80.8909 279.2212 15.08841504 48392,6917.876,95.437,540.527,538.954,0.0
52290.0,STARLINK-3772,PAYLOAD,2023-02-26 07:01:49,15.08860947,0.0001159,53.2179,30.4846,85.5402,274.5723,0.00089941,0.00014063,0.0,0 STARLINK-3772,1 52290U 22041AF  23057.29293654  .00014063  00000-0  89941-3 0  9992,2 52290  53.2179  30.4846 0001159  85.5402 274.5723 15.08860947 47326,6917.816,95.436,540.483,538.88,0.0
52290.0,STARLINK-3772,PAYLOAD,2023-02-27 08:27:59,15.08858568,0.0001498,53.2176,25.7264,82.7993,277.3169,0.00055537,8.566e-05,0.0,0 STARLINK-3772,1 52290U 22041AF  23058.35277490  .00008566  00000-0  55537-3 0  9995,2 52290  53.2176  25.7264 0001498  82.7993 277.3169 15.08858568 48696,6917.824,95.436,540.725,538.652,0.0
52290.0,STARLINK-3772,PAYLOAD,2023-02-28 03:32:36,15.08855267,0.0001231,53.2166,22.1572,84.6291,275.4841,0.00057556,8.888e-05,0.0,0 STARLINK-3772,1 52290U 22041AF  23059.14764989  .00008888  00000-0  57556-3 0  9997,2 52290  53.2166  22.1572 0001231  84.6291 275.4841 15.08855267 48818,6917.834,95.437,540.55,538.847,0.0
52290.0,STARLINK-3772,PAYLOAD,2023-02-28 06:43:23,15.08860867,0.0001393,53.2176,21.5616,87.6027,272.5124,0.00066047,0.00010245,0.0,0 STARLINK-3772,1 52290U 22041AF  23059.28012902  .00010245  00000-0  66047-3 0  9998,2 52290  53.2176  21.5616 0001393  87.6027 272.5124 15.08860867 47622,6917.817,95.436,540.645,538.718,0.0
52290.0,STARLINK-3772,PAYLOAD,2023-03-01 04:58:50,15.08790353,0.0001305,53.2174,17.4001,115.6312,244.4815,-0.00040049,-6.647e-05,0.0,0 STARLINK-3772,1 52290U 22041AF  23060.20752593 -.00006647  00000-0 -40049-3 0  9996,2 52290  53.2174  17.4001 0001305 115.6312 244.4815 15.08790353 48970,6918.032,95.441,540.8,538.994,0.0
52290.0,STARLINK-3772,PAYLOAD,2023-03-01 08:09:36,15.08795882,0.0001581,53.2166,16.8069,102.0054,258.1116,-0.00031278,-5.256e-05,0.0,0 STARLINK-3772,1 52290U 22041AF  23060.34000851 -.00005256  00000-0 -31278-3 0  9993,2 52290  53.2166  16.8069 0001581 102.0054 258.1116 15.08795882 47783,6918.015,95.44,540.974,538.787,0.0
52290.0,STARLINK-3772,PAYLOAD,2023-03-02 03:14:13,15.08856587,0.0001645,53.2189,13.2364,119.7675,240.3481,0.0011403,0.00017915,0.0,0 STARLINK-3772,1 52290U 22041AF  23061.13487597  .00017915  00000-0  11403-2 0  9997,2 52290  53.2189  13.2364 0001645 119.7675 240.3481 15.08856587 49119,6917.83,95.437,540.833,538.557,0.0
52290.0,STARLINK-3772,PAYLOAD,2023-03-02 06:24:59,15.08868857,0.0001835,53.2175,12.6425,107.8229,252.2963,0.0014256,0.00022491,0.0,0 STARLINK-3772,1 52290U 22041AF  23061.26735704  .00022491  00000-0  14256-2 0  9991,2 52290  53.2175  12.6425 0001835 107.8229 252.2963 15.08868857 47926,6917.792,95.436,540.927,538.388,0.0
52290.0,STARLINK-3772,PAYLOAD,2023-03-03 06:15:45,15.08883769,0.0001319,53.2184,8.181,117.2284,242.8843,0.00056361,8.704e-05,0.0,0 STARLINK-3772,1 52290U 22041AF  23062.26094027  .00008704  00000-0  56361-3 0  9993,2 52290  53.2184   8.1810 0001319 117.2284 242.8843 15.08883769 49289,6917.747,95.435,540.524,538.699,0.0
52290.0,STARLINK-3772,PAYLOAD,2023-03-04 06:06:30,15.0889847,0.0001039,53.2188,3.7222,92.3927,267.7184,0.0018435,0.0002922,0.0,0 STARLINK-3772,1 52290U 22041AF  23063.25452493  .00029220  00000-0  18435-2 0  9993,2 52290  53.2188   3.7222 0001039  92.3927 267.7184 15.08898470 49433,6917.702,95.434,540.285,538.848,0.0
52290.0,STARLINK-3772,PAYLOAD,2023-03-04 20:25:00,15.0883026,0.000142,53.2197,1.0446,95.799,264.3164,0.0011313,0.00017758,0.0,0 STARLINK-3772,1 52290U 22041AF  23063.85069680  .00017758  00000-0  11313-2 0  9992,2 52290  53.2197   1.0446 0001420  95.7990 264.3164 15.08830260 49527,6917.91,95.438,540.758,538.793,0.0
52290.0,STARLINK-3772,PAYLOAD,2023-03-05 02:46:33,15.08828392,9.26e-05,53.2199,359.8568,48.2064,311.9007,0.0010425,0.00016337,0.0,0 STARLINK-3772,1 52290U 22041AF  23064.11566030  .00016337  00000-0  10425-2 0  9998,2 52290  53.2199 359.8568 0000926  48.2064 311.9007 15.08828392 49565,6917.916,95.438,540.421,539.14,0.0
52290.0,STARLINK-3772,PAYLOAD,2023-03-06 05:48:06,15.08888697,8.91e-05,53.2183,354.8023,64.341,295.7674,0.0020086,0.00031866,0.0,0 STARLINK-3772,1 52290U 22041AF  23065.24173739  .00031866  00000-0  20086-2 0  9991,2 52290  53.2183 354.8023 0000891  64.3410 295.7674 15.08888697 49736,6917.732,95.434,540.213,538.98,0.0
52290.0,STARLINK-3772,PAYLOAD,2023-03-07 04:03:30,15.08854328,0.0001296,53.2175,350.6379,73.4223,286.6912,0.0010163,0.0001593,0.0,0 STARLINK-3772,1 52290U 22041AF  23066.16910806  .00015930  00000-0  10163-2 0  9996,2 52290  53.2175 350.6379 0001296  73.4223 286.6912 15.08854328 49871,6917.837,95.437,540.598,538.805,0.0
52290.0,STARLINK-3772,PAYLOAD,2023-03-07 18:21:59,15.08829541,0.0001442,53.2172,347.9631,79.04,281.0755,0.0011047,0.00017332,0.0,0 STARLINK-3772,1 52290U 22041AF  23066.76526974  .00017332  00000-0  11047-2 0  9991,2 52290  53.2172 347.9631 0001442  79.0400 281.0755 15.08829541 49963,6917.912,95.438,540.775,538.78,0.0
52290.0,STARLINK-3772,PAYLOAD,2023-03-08 02:18:54,15.08859646,0.0001407,53.2165,346.478,83.3638,276.7514,0.0014638,0.00023098,0.0,0 STARLINK-3772,1 52290U 22041AF  23067.09646845  .00023098  00000-0  14638-2 0  9993,2 52290  53.2165 346.4780 0001407  83.3638 276.7514 15.08859646 50017,6917.82,95.436,540.659,538.712,0.0
52290.0,STARLINK-3772,PAYLOAD,2023-03-08 03:54:17,15.0887342,0.0001498,53.2171,346.1802,83.9395,276.1768,0.0019152,0.00030352,0.0,0 STARLINK-3772,1 52290U 22041AF  23067.16270553  .00030352  00000-0  19152-2 0  9997,2 52290  53.2171 346.1802 0001498  83.9395 276.1768 15.08873420 50024,6917.778,95.435,540.68,538.607,0.0
52290.0,STARLINK-3772,PAYLOAD,2023-03-09 00:34:19,15.08857677,0.0001731,53.2177,342.3129,79.4188,280.6999,0.0024553,0.00039024,0.0,0 STARLINK-3772,1 52290U 22041AF  23068.02383464  .00039024  00000-0  24553-2 0  9995,2 52290  53.2177 342.3129 0001731  79.4188 280.6999 15.08857677 50156,6917.826,95.436,540.889,538.494,0.0
52290.0,STARLINK-3772,PAYLOAD,2023-03-09 21:14:19,15.08867033,0.0001601,53.217,338.4485,56.836,303.2786,0.0015357,0.00024255,0.0,0 STARLINK-3772,1 52290U 22041AF  23068.88495041  .00024255  00000-0  15357-2 0  9996,2 52290  53.2170 338.4485 0001601  56.8360 303.2786 15.08867033 49079,6917.798,95.436,540.77,538.555,0.0
